BUILDING_ID,ADDRESS_POINT_ID,ADDRESS_REFERENCE,PERSONAL_NAME,ORGANISATION_NAME,DEPARTMENT,SUB_BUILDING_NAME,BUILDING_NAME,BUILDING_NUMBER,BUILDING_GROUP_NAME,THOROUGHFARE,SECONDARY_THOROUGHFARE,LOCALITY,SECONDARY_LOCALITY,PRINCIPAL_POST_TOWN,COUNTY,EIRCODE,ADDR_LINE_1,ADDR_LINE_2,ADDR_LINE_3,ADDR_LINE_4,ADDR_LINE_5,ADDR_LINE_6,ADDR_LINE_7,ADDR_LINE_8,ADDR_LINE_9,ADDR_LINE_10,SMALL_AREA_REF,LATITUDE,LONGITUDE
61514808,NULL,6151480800000000,NULL,NULL,NULL,NULL,NULL,NULL,NULL,NULL,NULL,BALLAGH,NEWTOWNCASHEL,NULL,LONGFORD,N39VH04,BALLAGH,NEWTOWNCASHEL,CO. LONGFORD,N39VH04,NULL,NULL,NULL,NULL,NULL,NULL,137015002,53.5726472268191,-7.94498203745481
61514809,NULL,6151480900000000,NULL,NULL,NULL,NULL,NULL,NULL,NULL,NULL,NULL,CARROW BEG,NEWTOWNCASHEL,NULL,LONGFORD,N39W3P3,CARROW BEG,NEWTOWNCASHEL,CO. LONGFORD,N39W3P3,NULL,NULL,NULL,NULL,NULL,NULL,137015002,53.5838658679019,-7.95099343305736
61514810,NULL,6151481000000000,NULL,NULL,NULL,NULL,NULL,NULL,NULL,NULL,NULL,ELFEET,NEWTOWNCASHEL,NULL,LONGFORD,N39V448,ELFEET,NEWTOWNCASHEL,CO. LONGFORD,N39V448,NULL,NULL,NULL,NULL,NULL,NULL,137015001,53.5868801663575,-7.96486504567968
61514819,NULL,6151481900000000,NULL,NULL,NULL,NULL,NULL,NULL,NULL,NULL,NULL,ELFEET,NEWTOWNCASHEL,NULL,LONGFORD,N39PV29,ELFEET,NEWTOWNCASHEL,CO. LONGFORD,N39PV29,NULL,NULL,NULL,NULL,NULL,NULL,137015002,53.5819522894431,-7.96257142527653
61514833,NULL,6151483300000000,NULL,NULL,NULL,NULL,NULL,NULL,NULL,NULL,NULL,COLLUM,NEWTOWNCASHEL,NULL,LONGFORD,N39TN62,COLLUM,NEWTOWNCASHEL,CO. LONGFORD,N39TN62,NULL,NULL,NULL,NULL,NULL,NULL,137015002,53.567487246084,-7.96969594161585
61512512,NULL,6151251200000000,NULL,NULL,NULL,NULL,NULL,NULL,NULL,NULL,NULL,CLONEE,KILLOE,NULL,LONGFORD,N39N673,CLONEE,KILLOE,CO. LONGFORD,N39N673,NULL,NULL,NULL,NULL,NULL,NULL,137017002,53.7628746416981,-7.73174393573567
61512516,NULL,6151251600000000,NULL,NULL,NULL,NULL,NULL,NULL,NULL,NULL,NULL,CORNEDDAN,BALLINALEE,NULL,LONGFORD,N39RH60,CORNEDDAN,BALLINALEE,CO. LONGFORD,N39RH60,NULL,NULL,NULL,NULL,NULL,NULL,137002002,53.7978653815866,-7.72746387027886
61512521,NULL,6151252100000000,NULL,NULL,NULL,NULL,NULL,NULL,NULL,NULL,NULL,CORNAFUNSHION,BALLINALEE,NULL,LONGFORD,N39P789,CORNAFUNSHION,BALLINALEE,CO. LONGFORD,N39P789,NULL,NULL,NULL,NULL,NULL,NULL,137039001,53.8125596171271,-7.69472006248532
61512547,NULL,6151254700000000,NULL,NULL,NULL,NULL,NULL,NULL,NULL,NULL,NULL,CLONTUMPHER,BALLINALEE,NULL,LONGFORD,N39Y383,CLONTUMPHER,BALLINALEE,CO. LONGFORD,N39Y383,NULL,NULL,NULL,NULL,NULL,NULL,137002002,53.7836010048747,-7.70981593163167
61512589,NULL,6151258900000000,NULL,NULL,NULL,NULL,NULL,NULL,NULL,NULL,NULL,AUGHAMORE,BALLINALEE,NULL,LONGFORD,N39RW66,AUGHAMORE,BALLINALEE,CO. LONGFORD,N39RW66,NULL,NULL,NULL,NULL,NULL,NULL,137006002,53.7572984812416,-7.6203476863467
61512608,NULL,6151260800000000,NULL,NULL,NULL,NULL,NULL,NULL,NULL,NULL,NULL,CLONFIN,BALLINALEE,NULL,LONGFORD,N39HF51,CLONFIN,BALLINALEE,CO. LONGFORD,N39HF51,NULL,NULL,NULL,NULL,NULL,NULL,137012001,53.7647138472651,-7.58788951559435
61512610,NULL,6151261000000000,NULL,NULL,NULL,NULL,NULL,NULL,NULL,NULL,NULL,CLONFIN,BALLINALEE,NULL,LONGFORD,N39DP20,CLONFIN,BALLINALEE,CO. LONGFORD,N39DP20,NULL,NULL,NULL,NULL,NULL,NULL,137012001,53.7655646134801,-7.58735043428588
61512641,NULL,6151264100000000,NULL,NULL,NULL,NULL,NULL,NULL,NULL,NULL,NULL,CASTLEBROCK,BALLINALEE,NULL,LONGFORD,N39YR68,CASTLEBROCK,BALLINALEE,CO. LONGFORD,N39YR68,NULL,NULL,NULL,NULL,NULL,NULL,137040001,53.7420604161093,-7.63730028058832
61512654,NULL,6151265400000000,NULL,NULL,NULL,NULL,NULL,NULL,NULL,NULL,NULL,CASTLEBROCK,BALLINALEE,NULL,LONGFORD,N39K523,CASTLEBROCK,BALLINALEE,CO. LONGFORD,N39K523,NULL,NULL,NULL,NULL,NULL,NULL,137040001,53.7431111912247,-7.63384656994092
61509751,NULL,6150975100000000,NULL,NULL,NULL,NULL,NULL,NULL,NULL,NULL,NULL,CLOONMACART,DRUMLISH,NULL,LONGFORD,N39Y009,CLOONMACART,DRUMLISH,CO. LONGFORD,N39Y009,NULL,NULL,NULL,NULL,NULL,NULL,137011002,53.8031522046786,-7.7596828326348
61509801,NULL,6150980100000000,NULL,NULL,NULL,NULL,NULL,NULL,NULL,NULL,NULL,GORTEENGAR,LANESBOROUGH,NULL,LONGFORD,N39DD88,GORTEENGAR,LANESBOROUGH,CO. LONGFORD,N39DD88,NULL,NULL,NULL,NULL,NULL,NULL,137054006,53.6634238775596,-7.97283680754776
61509802,NULL,6150980200000000,NULL,NULL,NULL,NULL,NULL,NULL,NULL,NULL,NULL,CARROWSTRAWLY,LANESBOROUGH,NULL,LONGFORD,N39XY90,CARROWSTRAWLY,LANESBOROUGH,CO. LONGFORD,N39XY90,NULL,NULL,NULL,NULL,NULL,NULL,137054001,53.6328606291817,-7.98663469284404
61509803,NULL,6150980300000000,NULL,NULL,NULL,NULL,NULL,NULL,NULL,NULL,NULL,TURREEN,LANESBOROUGH,NULL,LONGFORD,N39E400,TURREEN,LANESBOROUGH,CO. LONGFORD,N39E400,NULL,NULL,NULL,NULL,NULL,NULL,137054001,53.634248829082,-7.95997373105201
61509805,NULL,6150980500000000,NULL,NULL,NULL,NULL,DERRYGOWNA HOUSE,NULL,NULL,NULL,NULL,DERRYGOWNA,LANESBOROUGH,NULL,LONGFORD,N39XN51,DERRYGOWNA HOUSE,DERRYGOWNA,LANESBOROUGH,CO. LONGFORD,N39XN51,NULL,NULL,NULL,NULL,NULL,137014001,53.6074703453939,-7.93101612345409
61509825,NULL,6150982500000000,NULL,NULL,NULL,NULL,NULL,NULL,NULL,NULL,NULL,LETTERGEERAGH,DRUMLISH,NULL,LONGFORD,N39E0P8,LETTERGEERAGH,DRUMLISH,CO. LONGFORD,N39E0P8,NULL,NULL,NULL,NULL,NULL,NULL,137008001,53.8315117378508,-7.71113152771795
61509826,NULL,6150982600000000,NULL,NULL,NULL,NULL,NULL,NULL,NULL,NULL,NULL,BROCKLAGH,DRUMLISH,NULL,LONGFORD,N39XH39,BROCKLAGH,DRUMLISH,CO. LONGFORD,N39XH39,NULL,NULL,NULL,NULL,NULL,NULL,137039001,53.8344997,-7.72608679
61509833,NULL,6150983300000000,NULL,NULL,NULL,NULL,NULL,NULL,NULL,NULL,NULL,FARDRUMMAN,BALLINAMUCK,NULL,LONGFORD,N39Y765,FARDRUMMAN,BALLINAMUCK,CO. LONGFORD,N39Y765,NULL,NULL,NULL,NULL,NULL,NULL,137008001,53.8645181743637,-7.73224470985856
61509882,NULL,6150988200000000,NULL,NULL,NULL,NULL,NULL,NULL,NULL,NULL,NULL,DERRYOGHIL,LANESBOROUGH,NULL,LONGFORD,N39CK66,DERRYOGHIL,LANESBOROUGH,CO. LONGFORD,N39CK66,NULL,NULL,NULL,NULL,NULL,NULL,137014001,53.6416694439233,-7.86557964051488
61509883,NULL,6150988300000000,NULL,NULL,NULL,NULL,NULL,NULL,NULL,NULL,NULL,TULLYVRANE,LANESBOROUGH,NULL,LONGFORD,N39KH52,TULLYVRANE,LANESBOROUGH,CO. LONGFORD,N39KH52,NULL,NULL,NULL,NULL,NULL,NULL,137054007,53.6567115214638,-7.96997300764782
61509943,NULL,6150994300000000,NULL,NULL,NULL,NULL,NULL,22,NULL,SAINT PATRICK'S COURT,NULL,BALLINAMUCK,NULL,NULL,LONGFORD,N39DW99,22 SAINT PATRICK'S COURT,BALLINAMUCK,CO. LONGFORD,N39DW99,NULL,NULL,NULL,NULL,NULL,NULL,137008002,53.8666740546308,-7.71862029519305
61509944,NULL,6150994400000000,NULL,NULL,NULL,NULL,NULL,23,NULL,SAINT PATRICK'S COURT,NULL,BALLINAMUCK,NULL,NULL,LONGFORD,N39HV27,23 SAINT PATRICK'S COURT,BALLINAMUCK,CO. LONGFORD,N39HV27,NULL,NULL,NULL,NULL,NULL,NULL,137008002,53.8665847160151,-7.71859380850044
61509946,NULL,6150994600000000,NULL,NULL,NULL,NULL,NULL,24,NULL,SAINT PATRICK'S COURT,NULL,BALLINAMUCK,NULL,NULL,LONGFORD,N39HK07,24 SAINT PATRICK'S COURT,BALLINAMUCK,CO. LONGFORD,N39HK07,NULL,NULL,NULL,NULL,NULL,NULL,137008002,53.8664653044049,-7.71855851025823
61509947,40078124,6150994740078124,NULL,NULL,NULL,NULL,NULL,25,NULL,SAINT PATRICK'S COURT,NULL,BALLINAMUCK,NULL,NULL,LONGFORD,N39YK13,25 SAINT PATRICK'S COURT,BALLINAMUCK,CO. LONGFORD,N39YK13,NULL,NULL,NULL,NULL,NULL,NULL,137008002,53.8663832815338,-7.71854077566716
61509949,NULL,6150994900000000,NULL,NULL,NULL,NULL,NULL,NULL,NULL,NULL,NULL,EDENMORE,BALLINAMUCK,NULL,LONGFORD,N39X054,EDENMORE,BALLINAMUCK,CO. LONGFORD,N39X054,NULL,NULL,NULL,NULL,NULL,NULL,137007001,53.8503461466635,-7.65055080199163
61509977,NULL,6150997700000000,NULL,NULL,NULL,NULL,NULL,NULL,NULL,NULL,NULL,RATHCLINE,LANESBOROUGH,NULL,LONGFORD,N39EY95,RATHCLINE,LANESBOROUGH,CO. LONGFORD,N39EY95,NULL,NULL,NULL,NULL,NULL,NULL,137054006,53.6517067918617,-7.98823613770122
61510042,NULL,6151004200000000,NULL,NULL,NULL,NULL,NULL,NULL,NULL,NULL,NULL,ESKER,BALLINALEE,NULL,LONGFORD,N39CX49,ESKER,BALLINALEE,CO. LONGFORD,N39CX49,NULL,NULL,NULL,NULL,NULL,NULL,137002001,53.774307157468,-7.69454950444185
61510044,NULL,6151004400000000,NULL,NULL,NULL,NULL,NULL,NULL,NULL,NULL,NULL,SORAN,BALLINALEE,NULL,LONGFORD,N39RY29,SORAN,BALLINALEE,CO. LONGFORD,N39RY29,NULL,NULL,NULL,NULL,NULL,NULL,137002001,53.786709809411,-7.67666746439106
61510046,NULL,6151004600000000,NULL,NULL,NULL,NULL,CURRACLOE,NULL,NULL,NULL,NULL,GELSHA,BALLINALEE,NULL,LONGFORD,N39PY90,CURRACLOE,GELSHA,BALLINALEE,CO. LONGFORD,N39PY90,NULL,NULL,NULL,NULL,NULL,137033001,53.803539081259,-7.61490727102947
61510055,NULL,6151005500000000,NULL,NULL,NULL,NULL,NULL,34,NULL,SHANTOBAR,NULL,BALLINALEE,NULL,NULL,LONGFORD,N39CC99,34 SHANTOBAR,BALLINALEE,CO. LONGFORD,N39CC99,NULL,NULL,NULL,NULL,NULL,NULL,137006001,53.7737915057166,-7.6540238555791
61510056,NULL,6151005600000000,NULL,NULL,NULL,NULL,NULL,35,NULL,SHANTOBAR,NULL,BALLINALEE,NULL,NULL,LONGFORD,N39DT86,35 SHANTOBAR,BALLINALEE,CO. LONGFORD,N39DT86,NULL,NULL,NULL,NULL,NULL,NULL,137006001,53.7738310338064,-7.65390457555494
61510709,NULL,6151070900000000,NULL,NULL,NULL,NULL,NULL,NULL,NULL,NULL,NULL,DRINAN,BALLYMAHON,NULL,LONGFORD,N39WK11,DRINAN,BALLYMAHON,CO. LONGFORD,N39WK11,NULL,NULL,NULL,NULL,NULL,NULL,137009004,53.5775180733012,-7.77318296329207
61510710,NULL,6151071000000000,NULL,NULL,NULL,NULL,NULL,NULL,NULL,NULL,NULL,TERELICKEN,BALLYMAHON,NULL,LONGFORD,N39XY31,TERELICKEN,BALLYMAHON,CO. LONGFORD,N39XY31,NULL,NULL,NULL,NULL,NULL,NULL,137009003,53.5876409200583,-7.79713202698562
61510711,NULL,6151071100000000,NULL,NULL,NULL,NULL,STONE COTTAGE,55,NULL,THOMOND HALL RETIREMENT VILLAGE,THOMOND HALL,BALLYMAHON,NULL,NULL,LONGFORD,N39DP46,STONE COTTAGE,55 THOMOND HALL RETIREMENT VILLAGE,THOMOND HALL,BALLYMAHON,CO. LONGFORD,N39DP46,NULL,NULL,NULL,NULL,137009008,53.5580197956416,-7.77415509548657
61510712,NULL,6151071200000000,NULL,NULL,NULL,NULL,STONE COTTAGE,60,NULL,THOMOND HALL RETIREMENT VILLAGE,THOMOND HALL,BALLYMAHON,NULL,NULL,LONGFORD,N39RX46,STONE COTTAGE,60 THOMOND HALL RETIREMENT VILLAGE,THOMOND HALL,BALLYMAHON,CO. LONGFORD,N39RX46,NULL,NULL,NULL,NULL,137009008,53.5582520932032,-7.77368913878907
61510827,NULL,6151082700000000,NULL,NULL,NULL,NULL,CASTLECORE HOUSE,NULL,NULL,NULL,NULL,CASTLECORE,BALLYMAHON,NULL,LONGFORD,N39A023,CASTLECORE HOUSE,CASTLECORE,BALLYMAHON,CO. LONGFORD,N39A023,NULL,NULL,NULL,NULL,NULL,137009001,53.5637005338219,-7.79356281080418
61510828,NULL,6151082800000000,NULL,NULL,NULL,NULL,NULL,NULL,NULL,NULL,NULL,DAROGUE,BALLYMAHON,NULL,LONGFORD,N39TW88,DAROGUE,BALLYMAHON,CO. LONGFORD,N39TW88,NULL,NULL,NULL,NULL,NULL,NULL,137009001,53.5603699073432,-7.80421191942483
61510829,NULL,6151082900000000,NULL,NULL,NULL,NULL,NULL,NULL,NULL,NULL,NULL,DAROGUE,BALLYMAHON,NULL,LONGFORD,N39WV05,DAROGUE,BALLYMAHON,CO. LONGFORD,N39WV05,NULL,NULL,NULL,NULL,NULL,NULL,137009001,53.5596562178735,-7.80293406397774
61510830,NULL,6151083000000000,NULL,NULL,NULL,NULL,NULL,NULL,NULL,NULL,NULL,BALLYMULVEY,BALLYMAHON,NULL,LONGFORD,N39XH34,BALLYMULVEY,BALLYMAHON,CO. LONGFORD,N39XH34,NULL,NULL,NULL,NULL,NULL,NULL,137009002,53.5640157971079,-7.75675112174522
61510831,NULL,6151083100000000,NULL,NULL,NULL,NULL,NULL,NULL,NULL,NULL,NULL,CLONCULLEN,BALLYMAHON,NULL,LONGFORD,N39V562,CLONCULLEN,BALLYMAHON,CO. LONGFORD,N39V562,NULL,NULL,NULL,NULL,NULL,NULL,137031001,53.5349324466554,-7.7219237361064
61527373,NULL,6152737300000000,NULL,NULL,NULL,NULL,NULL,NULL,NULL,NULL,NULL,CULRAY,AUGHNACLIFFE,NULL,LONGFORD,N39DP99,CULRAY,AUGHNACLIFFE,CO. LONGFORD,N39DP99,NULL,NULL,NULL,NULL,NULL,NULL,137055001,53.8142743161406,-7.57721071094319
61527391,NULL,6152739100000000,NULL,NULL,NULL,NULL,NULL,NULL,NULL,NULL,NULL,DUNBEGGAN,AUGHNACLIFFE,NULL,LONGFORD,N39FX78,DUNBEGGAN,AUGHNACLIFFE,CO. LONGFORD,N39FX78,NULL,NULL,NULL,NULL,NULL,NULL,137018002,53.8480846949052,-7.59300332326141
61527394,NULL,6152739400000000,NULL,NULL,NULL,NULL,NULL,NULL,NULL,NULL,NULL,CULRAY,AUGHNACLIFFE,NULL,LONGFORD,N39DN25,CULRAY,AUGHNACLIFFE,CO. LONGFORD,N39DN25,NULL,NULL,NULL,NULL,NULL,NULL,137055001,53.8156258378058,-7.5791876029122
61527396,NULL,6152739600000000,NULL,NULL,NULL,NULL,NULL,NULL,NULL,NULL,NULL,AGHAKINE,AUGHNACLIFFE,NULL,LONGFORD,N39F206,AGHAKINE,AUGHNACLIFFE,CO. LONGFORD,N39F206,NULL,NULL,NULL,NULL,NULL,NULL,137055001,53.8418728897705,-7.59537579929411
61527441,NULL,6152744100000000,NULL,NULL,NULL,NULL,SYCAMORE COTTAGE,NULL,NULL,NULL,NULL,AGHAMORE LOWER,AUGHNACLIFFE,NULL,LONGFORD,N39DC96,SYCAMORE COTTAGE,AGHAMORE LOWER,AUGHNACLIFFE,CO. LONGFORD,N39DC96,NULL,NULL,NULL,NULL,NULL,137026002,53.8847042962448,-7.6463315104768
61527442,61527443,6152744261527443,NULL,NULL,NULL,NULL,THE RIVER,NULL,NULL,NULL,NULL,RATHMORE,AUGHNACLIFFE,NULL,LONGFORD,N39XH27,THE RIVER,RATHMORE,AUGHNACLIFFE,CO. LONGFORD,N39XH27,NULL,NULL,NULL,NULL,NULL,137007003,53.8476528993469,-7.61041338907765
61527450,NULL,6152745000000000,NULL,NULL,NULL,NULL,NULL,NULL,NULL,NULL,NULL,AGHAKINE,AUGHNACLIFFE,NULL,LONGFORD,N39Y002,AGHAKINE,AUGHNACLIFFE,CO. LONGFORD,N39Y002,NULL,NULL,NULL,NULL,NULL,NULL,137055001,53.8372334719758,-7.58930891867097
61510910,NULL,6151091000000000,NULL,NULL,NULL,NULL,NULL,NULL,NULL,NULL,NULL,BARRYMORE,DRUMLISH,NULL,LONGFORD,N39KX76,BARRYMORE,DRUMLISH,CO. LONGFORD,N39KX76,NULL,NULL,NULL,NULL,NULL,NULL,137027002,53.8328641420607,-7.7606601119231
61510943,NULL,6151094300000000,NULL,NULL,NULL,NULL,NULL,NULL,NULL,NULL,NULL,LETTERGULLION,BALLINAMUCK,NULL,LONGFORD,N39FV34,LETTERGULLION,BALLINAMUCK,CO. LONGFORD,N39FV34,NULL,NULL,NULL,NULL,NULL,NULL,137008001,53.8467942165776,-7.71913225492161
61510944,NULL,6151094400000000,NULL,NULL,NULL,NULL,NULL,NULL,NULL,NULL,NULL,LETTERGULLION,BALLINAMUCK,NULL,LONGFORD,N39VF51,LETTERGULLION,BALLINAMUCK,CO. LONGFORD,N39VF51,NULL,NULL,NULL,NULL,NULL,NULL,137008001,53.8470555002671,-7.72040887551436
61510952,NULL,6151095200000000,NULL,NULL,NULL,NULL,NULL,NULL,NULL,NULL,NULL,TASHINNY GLEBE,COLEHILL,NULL,LONGFORD,N39X725,TASHINNY GLEBE,COLEHILL,CO. LONGFORD,N39X725,NULL,NULL,NULL,NULL,NULL,NULL,137025001,53.6142766789881,-7.71742570005793
61511063,NULL,6151106300000000,NULL,NULL,NULL,NULL,NULL,NULL,NULL,NULL,NULL,GAIGUE,BALLINAMUCK,NULL,LONGFORD,N39XR97,GAIGUE,BALLINAMUCK,CO. LONGFORD,N39XR97,NULL,NULL,NULL,NULL,NULL,NULL,137039001,53.8532447110329,-7.70657884854394
61511075,NULL,6151107500000000,NULL,NULL,NULL,NULL,NULL,NULL,NULL,NULL,NULL,KILCURRY,COLEHILL,NULL,LONGFORD,N39E778,KILCURRY,COLEHILL,CO. LONGFORD,N39E778,NULL,NULL,NULL,NULL,NULL,NULL,137037002,53.5848932830396,-7.71478288417292
61511077,40300863,6151107740300863,NULL,DARREN QUINN STONE WORKS,NULL,NULL,NULL,NULL,NULL,NULL,NULL,TOWNAGH,BALLINAMUCK,NULL,LONGFORD,N39H363,DARREN QUINN STONE WORKS,TOWNAGH,BALLINAMUCK,CO. LONGFORD,N39H363,NULL,NULL,NULL,NULL,NULL,137008002,53.8530872948785,-7.69147857228579
61511079,NULL,6151107900000000,NULL,NULL,NULL,NULL,NULL,NULL,NULL,NULL,NULL,DRUMANURE,ABBEYSHRULE,NULL,LONGFORD,N39RP80,DRUMANURE,ABBEYSHRULE,CO. LONGFORD,N39RP80,NULL,NULL,NULL,NULL,NULL,NULL,137003001,53.5947811638223,-7.66059173787388
61511080,40436225,6151108040436225,NULL,MIDLAND BAR FITTINGS,NULL,NULL,NULL,NULL,NULL,NULL,NULL,TASHINNY,COLEHILL,NULL,LONGFORD,N39YV60,MIDLAND BAR FITTINGS,TASHINNY,COLEHILL,CO. LONGFORD,N39YV60,NULL,NULL,NULL,NULL,NULL,137037003,53.5923778012326,-7.69760050843594
61511081,NULL,6151108100000000,NULL,NULL,NULL,NULL,NULL,26,NULL,CORNCRAKE MEADOW,NULL,ABBEYSHRULE,NULL,NULL,LONGFORD,N39V500,26 CORNCRAKE MEADOW,ABBEYSHRULE,CO. LONGFORD,N39V500,NULL,NULL,NULL,NULL,NULL,NULL,137003001,53.5844959516593,-7.65571871918581
61511082,NULL,6151108200000000,NULL,NULL,NULL,NULL,NULL,7,NULL,CORNCRAKE MEADOW,NULL,ABBEYSHRULE,NULL,NULL,LONGFORD,N39NY74,7 CORNCRAKE MEADOW,ABBEYSHRULE,CO. LONGFORD,N39NY74,NULL,NULL,NULL,NULL,NULL,NULL,137003001,53.584606743461,-7.65488132583576
61511083,NULL,6151108300000000,NULL,NULL,NULL,NULL,NULL,NULL,NULL,NULL,NULL,SHANMULLAGH,BALLINAMUCK,NULL,LONGFORD,N39R580,SHANMULLAGH,BALLINAMUCK,CO. LONGFORD,N39R580,NULL,NULL,NULL,NULL,NULL,NULL,137008002,53.8643714392339,-7.71476745592128
61511084,NULL,6151108400000000,NULL,NULL,NULL,NULL,NULL,NULL,NULL,NULL,NULL,ABBEYSHRULE,NULL,NULL,LONGFORD,N39H6W9,ABBEYSHRULE,CO. LONGFORD,N39H6W9,NULL,NULL,NULL,NULL,NULL,NULL,NULL,137003001,53.5831687162371,-7.65638035823522
61511085,NULL,6151108500000000,NULL,NULL,NULL,NULL,NULL,NULL,NULL,NULL,NULL,TENNALICK,COLEHILL,NULL,LONGFORD,N39P827,TENNALICK,COLEHILL,CO. LONGFORD,N39P827,NULL,NULL,NULL,NULL,NULL,NULL,137037002,53.580033336082,-7.67738143204952
61511086,NULL,6151108600000000,NULL,NULL,NULL,NULL,NULL,NULL,NULL,NULL,NULL,CREEVAGH,BALLYMAHON,NULL,LONGFORD,N39AF10,CREEVAGH,BALLYMAHON,CO. LONGFORD,N39AF10,NULL,NULL,NULL,NULL,NULL,NULL,137009007,53.5533005852824,-7.75844967251994
61511087,61511088,6151108761511088,NULL,NULL,NULL,NULL,NULL,NULL,NULL,NULL,NULL,FORGNEY,BALLYMAHON,NULL,LONGFORD,N39RD40,FORGNEY,BALLYMAHON,CO. LONGFORD,N39RD40,NULL,NULL,NULL,NULL,NULL,NULL,137031001,53.5512527512435,-7.69925553988697
61511089,NULL,6151108900000000,NULL,NULL,NULL,NULL,NULL,NULL,NULL,NULL,NULL,LISNACREEVA,COLEHILL,NULL,LONGFORD,N39RR88,LISNACREEVA,COLEHILL,CO. LONGFORD,N39RR88,NULL,NULL,NULL,NULL,NULL,NULL,137037003,53.6029423780892,-7.69227998353829
61511090,61511091,6151109061511091,NULL,MCCORMACK FRUIT,NULL,NULL,NULL,NULL,NULL,NULL,NULL,KILLINBORE,COLEHILL,NULL,LONGFORD,N39HY09,MCCORMACK FRUIT,KILLINBORE,COLEHILL,CO. LONGFORD,N39HY09,NULL,NULL,NULL,NULL,NULL,137037001,53.6036988944972,-7.67840652573434
61519415,NULL,6151941500000000,NULL,NULL,NULL,NULL,NULL,NULL,NULL,NULL,NULL,BARNE,EDGEWORTHSTOWN,NULL,LONGFORD,N39AD72,BARNE,EDGEWORTHSTOWN,CO. LONGFORD,N39AD72,NULL,NULL,NULL,NULL,NULL,NULL,137010001,53.674298884389,-7.60710734633502
61519427,NULL,6151942700000000,NULL,NULL,NULL,NULL,NULL,NULL,NULL,NULL,NULL,GNEEVE,EDGEWORTHSTOWN,NULL,LONGFORD,N39D525,GNEEVE,EDGEWORTHSTOWN,CO. LONGFORD,N39D525,NULL,NULL,NULL,NULL,NULL,NULL,137010001,53.6829247481544,-7.59319919484901
61519768,NULL,6151976800000000,NULL,NULL,NULL,NULL,NULL,NULL,NULL,NULL,NULL,CLOGHAN,MOYDOW,NULL,LONGFORD,N39Y5D4,CLOGHAN,MOYDOW,CO. LONGFORD,N39Y5D4,NULL,NULL,NULL,NULL,NULL,NULL,137025001,53.6525912041117,-7.77018599819794
61519798,NULL,6151979800000000,NULL,NULL,NULL,NULL,NULL,NULL,NULL,NULL,NULL,CLOONKEEN,MOYDOW,NULL,LONGFORD,N39P865,CLOONKEEN,MOYDOW,CO. LONGFORD,N39P865,NULL,NULL,NULL,NULL,NULL,NULL,137025001,53.645648087888,-7.74712061053856
61519819,NULL,6151981900000000,NULL,NULL,NULL,NULL,NULL,NULL,NULL,NULL,NULL,CURRYCREAGHAN,MOYDOW,NULL,LONGFORD,N39NX96,CURRYCREAGHAN,MOYDOW,CO. LONGFORD,N39NX96,NULL,NULL,NULL,NULL,NULL,NULL,137025002,53.6184530244292,-7.75771315876542
61519821,NULL,6151982100000000,NULL,NULL,NULL,NULL,NULL,NULL,NULL,NULL,NULL,MORNIN,MOYDOW,NULL,LONGFORD,N39VK71,MORNIN,MOYDOW,CO. LONGFORD,N39VK71,NULL,NULL,NULL,NULL,NULL,NULL,137025001,53.6236014096694,-7.72973664525344
61519822,NULL,6151982200000000,NULL,NULL,NULL,NULL,NULL,NULL,NULL,NULL,NULL,MORNIN,MOYDOW,NULL,LONGFORD,N39D959,MORNIN,MOYDOW,CO. LONGFORD,N39D959,NULL,NULL,NULL,NULL,NULL,NULL,137025001,53.6238186048548,-7.73003147224671
61519837,NULL,6151983700000000,NULL,NULL,NULL,NULL,NULL,NULL,NULL,NULL,NULL,KEEL,MOYDOW,NULL,LONGFORD,N39AP86,KEEL,MOYDOW,CO. LONGFORD,N39AP86,NULL,NULL,NULL,NULL,NULL,NULL,137037003,53.6377227083902,-7.72765314518714
61519839,NULL,6151983900000000,NULL,NULL,NULL,NULL,NULL,NULL,NULL,NULL,NULL,KEEL,MOYDOW,NULL,LONGFORD,N39K585,KEEL,MOYDOW,CO. LONGFORD,N39K585,NULL,NULL,NULL,NULL,NULL,NULL,137037003,53.6522233500248,-7.73687906081717
61519894,NULL,6151989400000000,NULL,NULL,NULL,NULL,NULL,NULL,NULL,NULL,NULL,MORNIN,MOYDOW,NULL,LONGFORD,N39K718,MORNIN,MOYDOW,CO. LONGFORD,N39K718,NULL,NULL,NULL,NULL,NULL,NULL,137025001,53.6253695563587,-7.72460936174265
61520389,NULL,6152038900000000,NULL,NULL,NULL,NULL,NULL,NULL,NULL,NULL,NULL,ABBEYDERG UPPER,KEENAGH,NULL,LONGFORD,N39D889,ABBEYDERG UPPER,KEENAGH,CO. LONGFORD,N39D889,NULL,NULL,NULL,NULL,NULL,NULL,137036002,53.6335503404454,-7.78221907971174
61520415,NULL,6152041500000000,NULL,NULL,NULL,NULL,NULL,NULL,NULL,NULL,NULL,LEGANROCK,LENAMORE,NULL,LONGFORD,N39X243,LEGANROCK,LENAMORE,CO. LONGFORD,N39X243,NULL,NULL,NULL,NULL,NULL,NULL,137003002,53.6209430757582,-7.64285009711135
61520405,NULL,6152040500000000,NULL,NULL,NULL,NULL,NULL,NULL,NULL,NULL,NULL,BARNEY,EDGEWORTHSTOWN,NULL,LONGFORD,N39EV52,BARNEY,EDGEWORTHSTOWN,CO. LONGFORD,N39EV52,NULL,NULL,NULL,NULL,NULL,NULL,137004002,53.6640135143152,-7.65543778684674
61520406,NULL,6152040600000000,NULL,NULL,NULL,NULL,ROCKWELL,NULL,NULL,NULL,NULL,TENNALOUGH,CARRICKBOY,NULL,LONGFORD,N39PF76,ROCKWELL,TENNALOUGH,CARRICKBOY,CO. LONGFORD,N39PF76,NULL,NULL,NULL,NULL,NULL,137037001,53.6254124286251,-7.68012047045752
61520427,NULL,6152042700000000,NULL,NULL,NULL,NULL,NULL,NULL,NULL,NULL,NULL,KILLEEN,LENAMORE,NULL,LONGFORD,N39FT27,KILLEEN,LENAMORE,CO. LONGFORD,N39FT27,NULL,NULL,NULL,NULL,NULL,NULL,137032002,53.6326252320642,-7.61488294516958
61520418,NULL,6152041800000000,NULL,NULL,NULL,NULL,NULL,NULL,NULL,NULL,NULL,KINARD,LENAMORE,NULL,LONGFORD,N39A564,KINARD,LENAMORE,CO. LONGFORD,N39A564,NULL,NULL,NULL,NULL,NULL,NULL,137032002,53.6242334406176,-7.60415786398727
61520428,NULL,6152042800000000,NULL,NULL,NULL,NULL,NULL,NULL,NULL,NULL,NULL,LEANABOY,EDGEWORTHSTOWN,NULL,LONGFORD,N39KR91,LEANABOY,EDGEWORTHSTOWN,CO. LONGFORD,N39KR91,NULL,NULL,NULL,NULL,NULL,NULL,137004002,53.6504282973078,-7.64845768354122
61524190,NULL,6152419000000000,NULL,NULL,NULL,NULL,SHALOM PLACE,NULL,NULL,DUBLIN ROAD,NULL,EDGEWORTHSTOWN,NULL,NULL,LONGFORD,N39TW44,SHALOM PLACE,DUBLIN ROAD,EDGEWORTHSTOWN,CO. LONGFORD,N39TW44,NULL,NULL,NULL,NULL,NULL,137029006,53.6932624372779,-7.60676290216033
61524510,NULL,6152451000000000,NULL,NULL,NULL,NULL,NULL,NULL,NULL,NULL,NULL,KILSALLAGH,EDGEWORTHSTOWN,NULL,LONGFORD,N39NW59,KILSALLAGH,EDGEWORTHSTOWN,CO. LONGFORD,N39NW59,NULL,NULL,NULL,NULL,NULL,NULL,137010001,53.677465814727,-7.56325712267985
61524538,NULL,6152453800000000,NULL,NULL,NULL,NULL,NULL,NULL,NULL,NULL,NULL,KILSALLAGH,EDGEWORTHSTOWN,NULL,LONGFORD,N39TW66,KILSALLAGH,EDGEWORTHSTOWN,CO. LONGFORD,N39TW66,NULL,NULL,NULL,NULL,NULL,NULL,137010001,53.6727478724035,-7.55016827824426
61524661,NULL,6152466100000000,NULL,NULL,NULL,NULL,NULL,NULL,NULL,NULL,NULL,GARRYANDREW,EDGEWORTHSTOWN,NULL,LONGFORD,N39KP21,GARRYANDREW,EDGEWORTHSTOWN,CO. LONGFORD,N39KP21,NULL,NULL,NULL,NULL,NULL,NULL,137029002,53.6882457362006,-7.59873902195964
61524735,NULL,6152473500000000,NULL,NULL,NULL,NULL,NULL,NULL,NULL,DUBLIN ROAD,NULL,EDGEWORTHSTOWN,NULL,NULL,LONGFORD,N39H048,DUBLIN ROAD,EDGEWORTHSTOWN,CO. LONGFORD,N39H048,NULL,NULL,NULL,NULL,NULL,NULL,137029006,53.6920151315956,-7.60757542194007
61525146,NULL,6152514600000000,NULL,NULL,NULL,NULL,NULL,NULL,NULL,NULL,NULL,CARN,CARRICKBOY,NULL,LONGFORD,N39AF44,CARN,CARRICKBOY,CO. LONGFORD,N39AF44,NULL,NULL,NULL,NULL,NULL,NULL,137037001,53.6385146558788,-7.69307460360226
61525800,NULL,6152580000000000,NULL,NULL,NULL,NULL,NULL,NULL,NULL,NULL,NULL,RICHFORT,ARDAGH,NULL,LONGFORD,N39Y400,RICHFORT,ARDAGH,CO. LONGFORD,N39Y400,NULL,NULL,NULL,NULL,NULL,NULL,137005001,53.682995673651,-7.71922505688516
61525801,NULL,6152580100000000,NULL,NULL,NULL,NULL,NULL,NULL,NULL,NULL,NULL,DRUMROE,EDGEWORTHSTOWN,NULL,LONGFORD,N39FF67,DRUMROE,EDGEWORTHSTOWN,CO. LONGFORD,N39FF67,NULL,NULL,NULL,NULL,NULL,NULL,137004002,53.6835067008214,-7.67663244866878
61525805,NULL,6152580500000000,NULL,NULL,NULL,NULL,NULL,NULL,NULL,NULL,NULL,MOOR,ARDAGH,NULL,LONGFORD,N39NP78,MOOR,ARDAGH,CO. LONGFORD,N39NP78,NULL,NULL,NULL,NULL,NULL,NULL,137005001,53.6663232847222,-7.70546567523039
61526478,NULL,6152647800000000,NULL,NULL,NULL,NULL,NULL,NULL,NULL,NULL,NULL,KEELOGALABAUN,MOYDOW,NULL,LONGFORD,N39PR64,KEELOGALABAUN,MOYDOW,CO. LONGFORD,N39PR64,NULL,NULL,NULL,NULL,NULL,NULL,137049002,53.6689347794922,-7.78959545216866
61516867,NULL,6151686700000000,NULL,NULL,NULL,NULL,NULL,NULL,NULL,NULL,NULL,CORLEA,DRUMLISH,NULL,LONGFORD,N39D660,CORLEA,DRUMLISH,CO. LONGFORD,N39D660,NULL,NULL,NULL,NULL,NULL,NULL,137027001,53.7806443374488,-7.7484760351024
61516879,NULL,6151687900000000,NULL,NULL,NULL,NULL,NULL,NULL,NULL,NULL,NULL,CORLEA,DRUMLISH,NULL,LONGFORD,N39E898,CORLEA,DRUMLISH,CO. LONGFORD,N39E898,NULL,NULL,NULL,NULL,NULL,NULL,137027001,53.7849154673187,-7.75364345277149
61516883,NULL,6151688300000000,NULL,NULL,NULL,NULL,NULL,NULL,NULL,NULL,NULL,BALLINCURRY,DRUMLISH,NULL,LONGFORD,N39PK81,BALLINCURRY,DRUMLISH,CO. LONGFORD,N39PK81,NULL,NULL,NULL,NULL,NULL,NULL,137011002,53.7848701110173,-7.78116070189991
61516884,NULL,6151688400000000,NULL,NULL,NULL,NULL,NULL,2,NULL,NULL,NULL,BALLINCURRY,DRUMLISH,NULL,LONGFORD,N39KR82,2 BALLINCURRY,DRUMLISH,CO. LONGFORD,N39KR82,NULL,NULL,NULL,NULL,NULL,NULL,137011002,53.7851098656988,-7.78158272221701
